ISS OBJECT XW           
1 66910U 98067XW  26054.22387280  .00120760  00000+0  12066-2 0  9993
2 66910  51.6247 139.0514 0004022  14.6874 345.4237 15.64709424 12913
ISS OBJECT XX           
1 66911U 98067XX  26054.27464413  .00190629  00000+0  15894-2 0  9996
2 66911  51.6227 137.8839 0006093   7.7298 352.3792 15.68926760 12923
ISS OBJECT XY           
1 66912U 98067XY  26054.25288779  .00086581  00000+0  10057-2 0  9991
2 66912  51.6268 140.0062 0002001  20.1544 339.9528 15.61009591 12892
ISS OBJECT XZ           
1 67683U 98067XZ  26054.23222287  .00041772  00000+0  71932-3 0  9990
2 67683  51.6315 143.6172 0009924 137.9612 222.2140 15.50601510  2548
GXIBA-1                 
1 67684U 98067YA  26053.64308545  .00079428  00000+0  12925-2 0  9992
2 67684  51.6313 146.4331 0011656 128.7037 231.4997 15.51889665  2451
CORAL                   
1 67685U 98067YB  26054.23048414  .00046455  00000+0  79164-3 0  9998
2 67685  51.6308 143.6052 0011890 134.4508 225.7456 15.50824960  2544
ISS OBJECT YC           
1 67686U 98067YC  26054.22865737  .00054606  00000+0  92039-3 0  9996
2 67686  51.6314 143.5941 0007702 104.5865 255.5979 15.51108116  2549
LEOPARD                 
1 67687U 98067YD  26054.48897801  .00041301  00000+0  70811-3 0  9994
2 67687  51.6312 142.3325 0007771 108.2365 251.9471 15.50750520  2507
ISS OBJECT YE           
1 67688U 98067YE  26053.26289915  .00047740  00000+0  81295-3 0  9992
2 67688  51.6324 148.3958 0007695 103.3001 256.8847 15.50878079  2317
CREW DRAGON 12          
1 67796U 26031A   26054.24990436  .00014749  00000+0  28254-3 0  9999
2 67796  51.6318 143.7335 0008465 124.8398 235.3387 15.48232437554065
